#aV2015 12 25  0  0  0.00000000     288 DD+AD WGS84 FIT  NGA
## 1876 432000.00000000   300.00000000 57381 0.0000000000000
+   31     1  2  3  5  6  7  8  9 10 11 12 13 14 15 16 17 18
+         19 20 21 22 23 24 25 26 27 28 29 30 31 32  0  0  0
+          0  0  0  0  0  0  0  0  0  0  0  0  0  0  0  0  0
+          0  0  0  0  0  0  0  0  0  0  0  0  0  0  0  0  0
+          0  0  0  0  0  0  0  0  0  0  0  0  0  0  0  0  0
++         2  2  2  2  2  2  2  2  2  2  2  2  2  2  2  2  2
++         2  2  2  2  2  2  2  2  2  2  2  2  2  2  0  0  0
++         0  0  0  0  0  0  0  0  0  0  0  0  0  0  0  0  0
++         0  0  0  0  0  0  0  0  0  0  0  0  0  0  0  0  0
++         0  0  0  0  0  0  0  0  0  0  0  0  0  0  0  0  0
%c cc cc ccc ccc cccc cccc cccc cccc ccccc ccccc ccccc ccccc
%c cc cc ccc ccc cccc cccc cccc cccc ccccc ccccc ccccc ccccc
%f  0.0000000  0.000000000  0.00000000000  0.000000000000000
%f  0.0000000  0.000000000  0.00000000000  0.000000000000000
%i    0    0    0    0      0      0      0      0         0
%i    0    0    0    0      0      0      0      0         0
/*      NGA, ST. LOUIS,MO.                                  
/*   EPHEMERIS COMPUTED FROM 2 DAYS OF DATA                 
/*   EPOCHA v2.4 SMOOTHER                                   
/*   G1762 IERS2010 SATAF SATAPC                            
*  2015 12 25 12 55  0.00000000
P  1  19496.969381  13772.669886 -11939.952604      7.491834                    
V  1 -15005.560835  -1802.161035 -26543.490983      0.009235                    
P  2   3220.643148 -15475.320437  21748.155593    598.410394                    
V  2  26069.889427   5955.462131    -43.356436      0.005228                    
P  3  12720.377431  21341.846252   9369.019044     -2.583191                    
V  3    645.537686  12175.782441 -28618.287986     -0.051885                    
P  5   -898.962925 -25060.140160   8380.797672   -161.687385                    
V  5   6065.831073   9512.052404  29045.568816      0.036117                    
P  6  17360.207172  -8578.877741  18175.429324    118.088754                    
V  6  21968.080525   7215.997018 -17587.544314      0.063642                    
P  7  26043.476908   5592.844218  -2564.760745    476.180198                    
V  7   2631.698946   3083.354548  31448.620214     -0.012936                    
P  8   1811.340848  17747.599358 -19622.032412    -17.528142                    
V  8 -18339.378510  17079.295650  13717.999961     -0.013979                    
P  9  19437.761312  -1754.317649  18003.079569     35.998235                    
V  9 -14783.428954  17571.831967  17647.954081      0.080011                    
P 10 -12957.868901   9134.475599 -21297.644825     46.547233                    
V 10  -7890.502311 -25901.917366  -6350.209072      0.033984                    
P 11  15336.315759  12886.251653 -18021.586663   -623.675411                    
V 11 -21678.850982   4638.713940 -15549.993937     -0.020966                    
P 12 -10088.168177 -23597.338414   7162.244577    356.006958                    
V 12   -402.278136  -9295.643693 -30522.085956      0.028606                    
P 13   7822.097379 -20100.723179 -15698.491908   -173.839461                    
V 13  16261.685714 -11098.548340  22416.383836     -0.026659                    
P 14 -21710.881881  14152.418311  -5192.833131     13.296770                    
V 14   3410.981132  -6641.473747 -31027.451351     -0.023530                    
P 15  -6016.205296 -16029.586024 -20346.047072   -288.942334                    
V 15  18010.520211 -18471.678327   9624.188695     -0.019025                    
P 16   -932.872380  24761.744212   8935.643079    -54.219650                    
V 16  -4287.980078 -10905.907714  29870.412812      0.033912                    
P 17  21333.695085 -14353.557728  -5881.754216   -197.417932                    
V 17  -4100.298370   7219.625482 -31021.899665     -0.008798                    
P 18 -16793.888778  -3975.685681 -19739.805507    466.269110                    
V 18  -6480.790995 -25497.273301  10108.769776      0.038653                    
P 19  22702.403559  -9325.496214 -10945.238621   -524.014021                    
V 19  -9122.268061   9943.787692 -27553.120346     -0.002562                    
P 20 -13303.630756 -22028.734823  -6595.398569    380.917668                    
V 20    715.157957  -9020.261148  29464.582841      0.027568                    
P 21 -25992.512916  -2315.744626  -5013.350204   -501.522474                    
V 21  -6273.342612  -4939.662658  30125.191903     -0.021766                    
P 22 -10401.620961  15113.009969 -18949.145911    417.869670                    
V 22  -9008.844289 -23076.636523 -13462.814049     -0.030443                    
P 23  12141.504317   9870.555118  21646.632905   -151.532192                    
V 23 -19059.993251  19292.794696   1476.542462     -0.019573                    
P 24 -17292.324823 -14503.131288 -14186.656926     -9.774980                    
V 24  17924.625177   1977.585914 -23758.135561     -0.004623                    
P 25 -15556.517288 -13012.289182  17143.888219    -88.527296                    
V 25  -4511.774865 -21425.240753 -20062.931742     -0.061844                    
P 26  -7008.623908  19103.201968  17061.753610   -181.400607                    
V 26  -7595.287755 -20368.835098  19717.690181     -0.172245                    
P 27  -8206.425444  21425.694475 -13285.172188     47.442481                    
V 27 -13290.477260  10596.537580  25473.434242      0.033644                    
P 28  12768.057955  -7718.625606 -21332.228161    490.715874                    
V 28   6024.781506  27908.094403  -6367.374479      0.026902                    
P 29 -17766.528127  -1817.863985  19663.020954    649.534586                    
V 29  17699.753864 -17548.605902  14418.882111      0.012328                    
P 30  23233.948160  -1781.729875 -12820.765048     75.694269                    
V 30  14654.346415   7444.559317  25445.324411      0.050552                    
P 31 -16360.675165   8823.334430  19228.852738    289.837517                    
V 31 -22750.332434  -7712.523535 -15570.385934     -0.015574                    
P 32   4686.425852  26439.285870   -555.478556     59.113189                    
V 32  -2879.431882    -64.592294 -31070.255746      0.121751                    
EOF
